[{"OBJECT_NAME":"SDA_1684","OBJECT_ID":"2025-230W","EPOCH":"2026-03-09T22:42:30.839328","MEAN_MOTION":13.84530405,"ECCENTRICITY":0.00030032,"INCLINATION":81.3001,"RA_OF_ASC_NODE":303.7717,"ARG_OF_PERICENTER":64.2514,"MEAN_ANOMALY":295.8953,"EPHEMERIS_TYPE":0,"CLASSIFICATION_TYPE":"U","NORAD_CAT_ID":65994,"ELEMENT_SET_NO":999,"REV_AT_EPOCH":2007,"BSTAR":-0.026007307,"MEAN_MOTION_DOT":-0.00029027,"MEAN_MOTION_DDOT":0},{"OBJECT_NAME":"SL-16 DEB","OBJECT_ID":"1992-093AQ","EPOCH":"2026-03-09T12:28:14.329920","MEAN_MOTION":14.03991985,"ECCENTRICITY":0.01058765,"INCLINATION":70.9059,"RA_OF_ASC_NODE":116.858,"ARG_OF_PERICENTER":241.6208,"MEAN_ANOMALY":240.4409,"EPHEMERIS_TYPE":0,"CLASSIFICATION_TYPE":"U","NORAD_CAT_ID":22351,"ELEMENT_SET_NO":999,"REV_AT_EPOCH":69568,"BSTAR":0.00026904639,"MEAN_MOTION_DOT":4.0e-6,"MEAN_MOTION_DDOT":0}]
